[{"OBJECT_NAME":"INTELSAT 23 (IS-23)","OBJECT_ID":"2012-057A","EPOCH":"2026-03-03T03:09:38.634624","MEAN_MOTION":1.00274231,"ECCENTRICITY":0.0001026,"INCLINATION":0.0472,"RA_OF_ASC_NODE":261.1191,"ARG_OF_PERICENTER":83.7289,"MEAN_ANOMALY":170.4596,"EPHEMERIS_TYPE":0,"CLASSIFICATION_TYPE":"U","NORAD_CAT_ID":38867,"ELEMENT_SET_NO":999,"REV_AT_EPOCH":4889,"BSTAR":0,"MEAN_MOTION_DOT":-3.0e-6,"MEAN_MOTION_DDOT":0},{"OBJECT_NAME":"FM-6","OBJECT_ID":"2013-058A","EPOCH":"2026-03-03T03:49:38.807616","MEAN_MOTION":1.00270658,"ECCENTRICITY":0.0003044,"INCLINATION":0.0216,"RA_OF_ASC_NODE":129.4848,"ARG_OF_PERICENTER":52.278,"MEAN_ANOMALY":280.3902,"EPHEMERIS_TYPE":0,"CLASSIFICATION_TYPE":"U","NORAD_CAT_ID":39360,"ELEMENT_SET_NO":999,"REV_AT_EPOCH":4501,"BSTAR":0,"MEAN_MOTION_DOT":-3.2e-7,"MEAN_MOTION_DDOT":0},{"OBJECT_NAME":"INTELSAT 30 (IS-30)","OBJECT_ID":"2014-062A","EPOCH":"2026-03-03T03:41:38.902272","MEAN_MOTION":1.00272459,"ECCENTRICITY":0.0001219,"INCLINATION":0.0149,"RA_OF_ASC_NODE":80.7097,"ARG_OF_PERICENTER":34.9033,"MEAN_ANOMALY":5.673,"EPHEMERIS_TYPE":0,"CLASSIFICATION_TYPE":"U","NORAD_CAT_ID":40271,"ELEMENT_SET_NO":999,"REV_AT_EPOCH":573,"BSTAR":0,"MEAN_MOTION_DOT":-1.67e-6,"MEAN_MOTION_DDOT":0},{"OBJECT_NAME":"DIRECTV 14","OBJECT_ID":"2014-078B","EPOCH":"2026-03-03T01:37:26.719104","MEAN_MOTION":1.00273241,"ECCENTRICITY":3.44e-5,"INCLINATION":0.017,"RA_OF_ASC_NODE":109.9695,"ARG_OF_PERICENTER":52.3524,"MEAN_ANOMALY":283.6229,"EPHEMERIS_TYPE":0,"CLASSIFICATION_TYPE":"U","NORAD_CAT_ID":40333,"ELEMENT_SET_NO":999,"REV_AT_EPOCH":4097,"BSTAR":0,"MEAN_MOTION_DOT":-1.41e-6,"MEAN_MOTION_DDOT":0},{"OBJECT_NAME":"DIRECTV 15","OBJECT_ID":"2015-026A","EPOCH":"2026-03-03T03:41:38.902272","MEAN_MOTION":1.00272714,"ECCENTRICITY":7.19e-5,"INCLINATION":0.0208,"RA_OF_ASC_NODE":102.8028,"ARG_OF_PERICENTER":109.0121,"MEAN_ANOMALY":261.6355,"EPHEMERIS_TYPE":0,"CLASSIFICATION_TYPE":"U","NORAD_CAT_ID":40663,"ELEMENT_SET_NO":999,"REV_AT_EPOCH":3940,"BSTAR":0,"MEAN_MOTION_DOT":-1.18e-6,"MEAN_MOTION_DDOT":0},{"OBJECT_NAME":"SKY MEXICO-1","OBJECT_ID":"2015-026B","EPOCH":"2026-03-03T03:25:38.777088","MEAN_MOTION":1.00267203,"ECCENTRICITY":0.0002297,"INCLINATION":0.028,"RA_OF_ASC_NODE":137.8637,"ARG_OF_PERICENTER":226.4359,"MEAN_ANOMALY":129.2567,"EPHEMERIS_TYPE":0,"CLASSIFICATION_TYPE":"U","NORAD_CAT_ID":40664,"ELEMENT_SET_NO":999,"REV_AT_EPOCH":3939,"BSTAR":0,"MEAN_MOTION_DOT":0,"MEAN_MOTION_DDOT":0},{"OBJECT_NAME":"INTELSAT 34 (IS-34)","OBJECT_ID":"2015-039A","EPOCH":"2026-03-03T03:09:38.634624","MEAN_MOTION":1.0026784,"ECCENTRICITY":1.43e-5,"INCLINATION":0.0305,"RA_OF_ASC_NODE":268.3553,"ARG_OF_PERICENTER":157.7486,"MEAN_ANOMALY":86.7106,"EPHEMERIS_TYPE":0,"CLASSIFICATION_TYPE":"U","NORAD_CAT_ID":40874,"ELEMENT_SET_NO":999,"REV_AT_EPOCH":3856,"BSTAR":0,"MEAN_MOTION_DOT":-3.01e-6,"MEAN_MOTION_DDOT":0},{"OBJECT_NAME":"INTELSAT 31 (IS-31)","OBJECT_ID":"2016-035A","EPOCH":"2026-03-02T23:55:58.944864","MEAN_MOTION":1.00272767,"ECCENTRICITY":0.0001857,"INCLINATION":0.0379,"RA_OF_ASC_NODE":251.7446,"ARG_OF_PERICENTER":342.4059,"MEAN_ANOMALY":190.5537,"EPHEMERIS_TYPE":0,"CLASSIFICATION_TYPE":"U","NORAD_CAT_ID":41581,"ELEMENT_SET_NO":999,"REV_AT_EPOCH":3561,"BSTAR":0,"MEAN_MOTION_DOT":-1.67e-6,"MEAN_MOTION_DDOT":0},{"OBJECT_NAME":"INTELSAT 36 (IS-36)","OBJECT_ID":"2016-053A","EPOCH":"2026-03-03T02:25:19.486272","MEAN_MOTION":1.00268453,"ECCENTRICITY":0.0001227,"INCLINATION":0.0216,"RA_OF_ASC_NODE":123.0712,"ARG_OF_PERICENTER":205.9305,"MEAN_ANOMALY":296.7202,"EPHEMERIS_TYPE":0,"CLASSIFICATION_TYPE":"U","NORAD_CAT_ID":41747,"ELEMENT_SET_NO":999,"REV_AT_EPOCH":3489,"BSTAR":0,"MEAN_MOTION_DOT":0,"MEAN_MOTION_DDOT":0},{"OBJECT_NAME":"INTELSAT 32E (IS-32E)","OBJECT_ID":"2017-007B","EPOCH":"2026-03-03T00:10:42.532608","MEAN_MOTION":1.0027101,"ECCENTRICITY":5.56e-5,"INCLINATION":0.016,"RA_OF_ASC_NODE":125.7095,"ARG_OF_PERICENTER":174.0545,"MEAN_ANOMALY":180.4978,"EPHEMERIS_TYPE":0,"CLASSIFICATION_TYPE":"U","NORAD_CAT_ID":41945,"ELEMENT_SET_NO":999,"REV_AT_EPOCH":3316,"BSTAR":0,"MEAN_MOTION_DOT":-2.85e-6,"MEAN_MOTION_DDOT":0},{"OBJECT_NAME":"INTELSAT 35E (IS-35E)","OBJECT_ID":"2017-041A","EPOCH":"2026-03-03T03:01:38.453664","MEAN_MOTION":1.00271285,"ECCENTRICITY":0.0002253,"INCLINATION":0.0351,"RA_OF_ASC_NODE":258.2082,"ARG_OF_PERICENTER":81.2175,"MEAN_ANOMALY":192.3525,"EPHEMERIS_TYPE":0,"CLASSIFICATION_TYPE":"U","NORAD_CAT_ID":42818,"ELEMENT_SET_NO":999,"REV_AT_EPOCH":3175,"BSTAR":0,"MEAN_MOTION_DOT":-2.54e-6,"MEAN_MOTION_DDOT":0},{"OBJECT_NAME":"INTELSAT 37E (IS-37E)","OBJECT_ID":"2017-059A","EPOCH":"2026-03-03T02:00:36.855360","MEAN_MOTION":1.00269239,"ECCENTRICITY":0.0002208,"INCLINATION":0.0263,"RA_OF_ASC_NODE":150.8586,"ARG_OF_PERICENTER":192.4115,"MEAN_ANOMALY":189.7559,"EPHEMERIS_TYPE":0,"CLASSIFICATION_TYPE":"U","NORAD_CAT_ID":42950,"ELEMENT_SET_NO":999,"REV_AT_EPOCH":3100,"BSTAR":0,"MEAN_MOTION_DOT":0,"MEAN_MOTION_DDOT":0},{"OBJECT_NAME":"AZERSPACE 2 (IS-38)","OBJECT_ID":"2018-074A","EPOCH":"2026-03-03T02:31:38.663040","MEAN_MOTION":1.00269783,"ECCENTRICITY":0.0001465,"INCLINATION":0.0253,"RA_OF_ASC_NODE":149.5125,"ARG_OF_PERICENTER":199.7338,"MEAN_ANOMALY":254.6632,"EPHEMERIS_TYPE":0,"CLASSIFICATION_TYPE":"U","NORAD_CAT_ID":43632,"ELEMENT_SET_NO":999,"REV_AT_EPOCH":2738,"BSTAR":0,"MEAN_MOTION_DOT":0,"MEAN_MOTION_DDOT":0},{"OBJECT_NAME":"HORIZONS-3E","OBJECT_ID":"2018-074B","EPOCH":"2026-03-03T02:53:54.247200","MEAN_MOTION":1.00271202,"ECCENTRICITY":6.31e-5,"INCLINATION":0.0104,"RA_OF_ASC_NODE":200.9449,"ARG_OF_PERICENTER":119.4732,"MEAN_ANOMALY":52.9118,"EPHEMERIS_TYPE":0,"CLASSIFICATION_TYPE":"U","NORAD_CAT_ID":43633,"ELEMENT_SET_NO":999,"REV_AT_EPOCH":2727,"BSTAR":0,"MEAN_MOTION_DOT":-4.7e-7,"MEAN_MOTION_DDOT":0},{"OBJECT_NAME":"AT&T T-16","OBJECT_ID":"2019-034A","EPOCH":"2026-03-03T03:41:38.902272","MEAN_MOTION":1.00268415,"ECCENTRICITY":6.98e-5,"INCLINATION":0.0225,"RA_OF_ASC_NODE":100.7588,"ARG_OF_PERICENTER":71.3197,"MEAN_ANOMALY":303.3702,"EPHEMERIS_TYPE":0,"CLASSIFICATION_TYPE":"U","NORAD_CAT_ID":44333,"ELEMENT_SET_NO":999,"REV_AT_EPOCH":2457,"BSTAR":0,"MEAN_MOTION_DOT":-1.3e-6,"MEAN_MOTION_DDOT":0},{"OBJECT_NAME":"INTELSAT 39 (IS-39)","OBJECT_ID":"2019-049B","EPOCH":"2026-03-02T09:31:38.538048","MEAN_MOTION":1.00269151,"ECCENTRICITY":6.167e-5,"INCLINATION":0.0272,"RA_OF_ASC_NODE":143.6954,"ARG_OF_PERICENTER":12.8828,"MEAN_ANOMALY":208.4639,"EPHEMERIS_TYPE":0,"CLASSIFICATION_TYPE":"U","NORAD_CAT_ID":44476,"ELEMENT_SET_NO":999,"REV_AT_EPOCH":2405,"BSTAR":0,"MEAN_MOTION_DOT":0,"MEAN_MOTION_DDOT":0},{"OBJECT_NAME":"GALAXY 30 (G-30)","OBJECT_ID":"2020-056C","EPOCH":"2026-03-03T03:49:38.807616","MEAN_MOTION":1.00272235,"ECCENTRICITY":0.0002205,"INCLINATION":0.0168,"RA_OF_ASC_NODE":121.9575,"ARG_OF_PERICENTER":218.1627,"MEAN_ANOMALY":113.197,"EPHEMERIS_TYPE":0,"CLASSIFICATION_TYPE":"U","NORAD_CAT_ID":46114,"ELEMENT_SET_NO":999,"REV_AT_EPOCH":2022,"BSTAR":0,"MEAN_MOTION_DOT":2.1e-7,"MEAN_MOTION_DDOT":0}]
