INTELSAT 23 (IS-23)     
1 38867U 12057A   26062.13169716 -.00000300  00000+0  00000+0 0  9999
2 38867   0.0472 261.1191 0001026  83.7289 170.4596  1.00274231 48895
FM-6                    
1 39360U 13058A   26062.15947694 -.00000032  00000+0  00000+0 0  9993
2 39360   0.0216 129.4848 0003044  52.2780 280.3902  1.00270658 45016
INTELSAT 30 (IS-30)     
1 40271U 14062A   26062.15392248 -.00000167  00000+0  00000+0 0  9990
2 40271   0.0149  80.7097 0001219  34.9033   5.6730  1.00272459  5732
DIRECTV 14              
1 40333U 14078B   26062.06767036 -.00000141  00000+0  00000+0 0  9999
2 40333   0.0170 109.9695 0000344  52.3524 283.6229  1.00273241 40976
DIRECTV 15              
1 40663U 15026A   26062.15392248 -.00000118  00000+0  00000+0 0  9992
2 40663   0.0208 102.8028 0000719 109.0121 261.6355  1.00272714 39401
SKY MEXICO-1            
1 40664U 15026B   26062.14280992  .00000000  00000+0  00000+0 0  9993
2 40664   0.0280 137.8637 0002297 226.4359 129.2567  1.00267203 39395
INTELSAT 34 (IS-34)     
1 40874U 15039A   26062.13169716 -.00000301  00000+0  00000+0 0  9994
2 40874   0.0305 268.3553 0000143 157.7486  86.7106  1.00267840 38569
INTELSAT 31 (IS-31)     
1 41581U 16035A   26061.99721001 -.00000167  00000+0  00000+0 0  9991
2 41581   0.0379 251.7446 0001857 342.4059 190.5537  1.00272767 35614
INTELSAT 36 (IS-36)     
1 41747U 16053A   26062.10091998  .00000000  00000+0  00000+0 0  9999
2 41747   0.0216 123.0712 0001227 205.9305 296.7202  1.00268453 34897
INTELSAT 32E (IS-32E)   
1 41945U 17007B   26062.00743672 -.00000285  00000+0  00000+0 0  9997
2 41945   0.0160 125.7095 0000556 174.0545 180.4978  1.00271010 33165
INTELSAT 35E (IS-35E)   
1 42818U 17041A   26062.12613951 -.00000254  00000+0  00000+0 0  9990
2 42818   0.0351 258.2082 0002253  81.2175 192.3525  1.00271285 31756
INTELSAT 37E (IS-37E)   
1 42950U 17059A   26062.08375990  .00000000  00000+0  00000+0 0  9997
2 42950   0.0263 150.8586 0002208 192.4115 189.7559  1.00269239 31001
AZERSPACE 2 (IS-38)     
1 43632U 18074A   26062.10530860  .00000000  00000+0  00000+0 0  9995
2 43632   0.0253 149.5125 0001465 199.7338 254.6632  1.00269783 27387
HORIZONS-3E             
1 43633U 18074B   26062.12076675 -.00000047  00000+0  00000+0 0  9999
2 43633   0.0104 200.9449 0000631 119.4732  52.9118  1.00271202 27270
AT&T T-16               
1 44333U 19034A   26062.15392248 -.00000130  00000+0  00000+0 0  9997
2 44333   0.0225 100.7588 0000698  71.3197 303.3702  1.00268415 24571
INTELSAT 39 (IS-39)     
1 44476U 19049B   26061.39697382  .00000000  00000+0  00000+0 0  9998
2 44476   0.0272 143.6954 0000616  12.8828 208.4639  1.00269151 24050
GALAXY 30 (G-30)        
1 46114U 20056C   26062.15947694  .00000021  00000+0  00000+0 0  9991
2 46114   0.0168 121.9575 0002205 218.1627 113.1970  1.00272235 20229
